STARLINK-5976           
1 56343U 23058AC  26116.46685609  .00000690  00000+0  51980-4 0  9990
2 56343  97.5695 118.2668 0002058  88.3424 271.8039 15.05645402165385
STARLINK-5974           
1 56344U 23058AD  26116.49455580  .00002571  00000+0  18231-3 0  9998
2 56344  97.5708 118.3813 0000830  98.6046 261.5274 15.05650291165394
STARLINK-5979           
1 56345U 23058AE  26116.49041507  .00000532  00000+0  41056-4 0  9996
2 56345  97.5730 117.1639 0000798  55.6478 304.4824 15.05653393165314
STARLINK-5837           
1 56346U 23058AF  26116.44612135  .00000043  00000+0  71677-5 0  9993
2 56346  97.5702 117.2213 0002016  85.7229 274.4228 15.05647726165313
STARLINK-5829           
1 56347U 23058AG  26116.51115580 -.00009308  00000+0 -64112-3 0  9993
2 56347  97.5719 118.3589 0002059 105.0941 255.0514 15.05685929165392
STARLINK-5888           
1 56348U 23058AH  26116.50426229 -.00000791  00000+0 -50645-4 0  9992
2 56348  97.5716 117.1423 0001778  89.1218 271.0212 15.05651085165311
STARLINK-5887           
1 56349U 23058AJ  26116.45166038  .00000051  00000+0  76829-5 0  9996
2 56349  97.5683 117.2185 0002101  87.5313 272.6154 15.05643937165319
STARLINK-5886           
1 56350U 23058AK  26116.50285528  .00000118  00000+0  12389-4 0  9994
2 56350  97.5719 118.3716 0002092  73.8444 286.3013 15.05647871165390
STARLINK-5891           
1 56351U 23058AL  26116.46131676 -.00000828  00000+0 -53208-4 0  9999
2 56351  97.5707 118.2732 0002316  85.4509 274.6983 15.05650222165384
STARLINK-5885           
1 56352U 23058AM  26116.48488168 -.00001197  00000+0 -78764-4 0  9997
2 56352  97.5707 117.1742 0002385  50.7825 309.3613 15.05658500165312
STARLINK-5874           
1 56353U 23058AN  26116.48764951  .00000491  00000+0  38199-4 0  9997
2 56353  97.5698 117.1770 0001564  85.4634 274.6772 15.05648981165316
STARLINK-5877           
1 56354U 23058AP  26116.48069375  .00001012  00000+0  74298-4 0  9996
2 56354  97.5699 118.2493 0001898  81.0074 279.1368 15.05649560165384
STARLINK-5533           
1 56355U 23058AQ  26116.46826422 -.00002574  00000+0 -17424-3 0  9992
2 56355  97.5690 117.1990 0001224  53.0064 307.1275 15.05659896165312
STARLINK-5535           
1 56356U 23058AR  26116.45853948 -.00003538  00000+0 -24104-3 0  9999
2 56356  97.5691 118.2778 0000720  63.8181 296.3119 15.05666629165384
STARLINK-5538           
1 56357U 23058AS  26116.49177367 -.00001071  00000+0 -70077-4 0  9999
2 56357  97.5718 118.3868 0000226  62.6825 297.4425 15.05657388165394
STARLINK-5482           
1 56358U 23058AT  26116.44889856  .00000674  00000+0  50893-4 0  9998
2 56358  97.5689 117.2244 0002368  92.6396 267.5102 15.05652772165317
STARLINK-5551           
1 56359U 23058AU  26116.50149433 -.00000238  00000+0 -12321-4 0  9998
2 56359  97.5698 117.1556 0001982  87.9422 272.2032 15.05647224165312
STARLINK-5549           
1 56360U 23058AV  26116.44743874  .00004683  00000+0  32820-3 0  9993
2 56360  97.5700 118.2914 0002097  78.6960 281.4502 15.05686942165381
STARLINK-5550           
1 56361U 23058AW  26116.45996588 -.00000037  00000+0  16442-5 0  9991
2 56361  97.5698 117.2118 0002184  87.0278 273.1199 15.05646034165317
STARLINK-5972           
1 56362U 23058AX  26116.51946446 -.00001520  00000+0 -10119-3 0  9999
2 56362  97.5678 118.3507 0001532  94.4023 265.7379 15.05654149165397
O3B MPOWER F4           
1 56367U 23059A   26116.40275618 -.00000027  00000+0  00000+0 0  9993
2 56367   0.0649   2.5704 0007258  44.7540 312.7351  5.00115892 56006
O3B MPOWER F3           
1 56368U 23059B   26116.23613644 -.00000027  00000+0  00000+0 0  9990
2 56368   0.0660   2.3395 0006656  35.1762 322.5291  5.00116591 52134
VIASAT-3 F1             
1 56370U 23060A   26116.15739240 -.00000199  00000+0  00000+0 0  9997
2 56370   0.0175 275.9888 0001156 168.9021  97.0353  1.00271228 10914
ARCTURUS                
1 56371U 23060B   26116.50836656 -.00000072  00000+0  00000+0 0  9996
2 56371   2.6430  80.5759 0001617 357.3425  32.1231  1.00269874 10940
GS-1                    
1 56372U 23060C   26115.72702000 -.00000222  00000+0  00000+0 0  9992
2 56372   2.5914  80.4182 0004466 274.3843 208.1666  1.00288618  7011
STARLINK-6156           
1 56374U 23061A   26116.54528068  .00001883  00000+0  77963-4 0  9996
2 56374  43.0028 288.0584 0001531 270.0198  90.0478 15.27568095165161
STARLINK-6158           
1 56375U 23061B   26116.49902778 -.00002168  00000+0 -69273-4 0  9999
2 56375  43.0034 287.7113 0000849 230.5904 129.4872 15.27587712164060
STARLINK-6188           
1 56376U 23061C   26112.89216828  .00000459  00000+0  26804-4 0  9996
2 56376  43.0029 307.9400 0001157 248.8955 111.1773 15.26740617163511
STARLINK-6189           
1 56377U 23061D   26116.47667252  .00001266  00000+0  56864-4 0  9992
2 56377  43.0038 288.4076 0001953 265.2943  94.7685 15.26744005164051
STARLINK-6191           
1 56378U 23061E   26116.49197741  .00000419  00000+0  25319-4 0  9996
2 56378  43.0013 287.6522 0001194 273.3687  86.7028 15.26740792164066
STARLINK-6157           
1 56379U 23061F   26116.50152111  .00006509  00000+0  25191-3 0  9994
2 56379  43.0017 287.7254 0001060 297.6271  62.4472 15.26769783165161
