OBJECT_NAME,OBJECT_ID,EPOCH,MEAN_MOTION,ECCENTRICITY,INCLINATION,RA_OF_ASC_NODE,ARG_OF_PERICENTER,MEAN_ANOMALY,EPHEMERIS_TYPE,CLASSIFICATION_TYPE,NORAD_CAT_ID,ELEMENT_SET_NO,REV_AT_EPOCH,BSTAR,MEAN_MOTION_DOT,MEAN_MOTION_DDOT
STARLINK-5976,2023-058AC,2026-04-26T11:12:16.366176,15.05645402,.0002058,97.5695,118.2668,88.3424,271.8039,0,U,56343,999,16538,.5198E-4,.69E-5,0
STARLINK-5974,2023-058AD,2026-04-26T11:52:09.621120,15.05650291,.000083,97.5708,118.3813,98.6046,261.5274,0,U,56344,999,16539,.18231E-3,.2571E-4,0
STARLINK-5979,2023-058AE,2026-04-26T11:46:11.862048,15.05653393,.0000798,97.5730,117.1639,55.6478,304.4824,0,U,56345,999,16531,.41056E-4,.532E-5,0
STARLINK-5837,2023-058AF,2026-04-26T10:42:24.884640,15.05647726,.0002016,97.5702,117.2213,85.7229,274.4228,0,U,56346,999,16531,.71677E-5,.43E-6,0
STARLINK-5829,2023-058AG,2026-04-26T12:16:03.861120,15.05685929,.0002059,97.5719,118.3589,105.0941,255.0514,0,U,56347,999,16539,-.64112E-3,-.9308E-4,0
STARLINK-5888,2023-058AH,2026-04-26T12:06:08.261856,15.05651085,.0001778,97.5716,117.1423,89.1218,271.0212,0,U,56348,999,16531,-.50645E-4,-.791E-5,0
STARLINK-5887,2023-058AJ,2026-04-26T10:50:23.456832,15.05643937,.0002101,97.5683,117.2185,87.5313,272.6154,0,U,56349,999,16531,.76829E-5,.51E-6,0
STARLINK-5886,2023-058AK,2026-04-26T12:04:06.696192,15.05647871,.0002092,97.5719,118.3716,73.8444,286.3013,0,U,56350,999,16539,.12389E-4,.118E-5,0
STARLINK-5891,2023-058AL,2026-04-26T11:04:17.768064,15.05650222,.0002316,97.5707,118.2732,85.4509,274.6983,0,U,56351,999,16538,-.53208E-4,-.828E-5,0
STARLINK-5885,2023-058AM,2026-04-26T11:38:13.777152,15.05658500,.0002385,97.5707,117.1742,50.7825,309.3613,0,U,56352,999,16531,-.78764E-4,-.1197E-4,0
STARLINK-5874,2023-058AN,2026-04-26T11:42:12.917664,15.05648981,.0001564,97.5698,117.1770,85.4634,274.6772,0,U,56353,999,16531,.38199E-4,.491E-5,0
STARLINK-5877,2023-058AP,2026-04-26T11:32:11.940000,15.05649560,.0001898,97.5699,118.2493,81.0074,279.1368,0,U,56354,999,16538,.74298E-4,.1012E-4,0
STARLINK-5533,2023-058AQ,2026-04-26T11:14:18.028608,15.05659896,.0001224,97.5690,117.1990,53.0064,307.1275,0,U,56355,999,16531,-.17424E-3,-.2574E-4,0
STARLINK-5535,2023-058AR,2026-04-26T11:00:17.811072,15.05666629,.000072,97.5691,118.2778,63.8181,296.3119,0,U,56356,999,16538,-.24104E-3,-.3538E-4,0
STARLINK-5538,2023-058AS,2026-04-26T11:48:09.245088,15.05657388,.0000226,97.5718,118.3868,62.6825,297.4425,0,U,56357,999,16539,-.70077E-4,-.1071E-4,0
STARLINK-5482,2023-058AT,2026-04-26T10:46:24.835584,15.05652772,.0002368,97.5689,117.2244,92.6396,267.5102,0,U,56358,999,16531,.50893E-4,.674E-5,0
STARLINK-5551,2023-058AU,2026-04-26T12:02:09.110112,15.05647224,.0001982,97.5698,117.1556,87.9422,272.2032,0,U,56359,999,16531,-.12321E-4,-.238E-5,0
STARLINK-5549,2023-058AV,2026-04-26T10:44:18.707136,15.05686942,.0002097,97.5700,118.2914,78.6960,281.4502,0,U,56360,999,16538,.3282E-3,.4683E-4,0
STARLINK-5550,2023-058AW,2026-04-26T11:02:21.052032,15.05646034,.0002184,97.5698,117.2118,87.0278,273.1199,0,U,56361,999,16531,.16442E-5,-.37E-6,0
STARLINK-5972,2023-058AX,2026-04-26T12:28:01.729344,15.05654149,.0001532,97.5678,118.3507,94.4023,265.7379,0,U,56362,999,16539,-.10119E-3,-.152E-4,0
O3B MPOWER F4,2023-059A,2026-04-26T09:39:58.133952,5.00115892,.0007258,0.0649,2.5704,44.7540,312.7351,0,U,56367,999,5600,0,-.27E-6,0
O3B MPOWER F3,2023-059B,2026-04-26T05:40:02.188416,5.00116591,.0006656,0.0660,2.3395,35.1762,322.5291,0,U,56368,999,5213,0,-.27E-6,0
VIASAT-3 F1,2023-060A,2026-04-26T03:46:38.703360,1.00271228,.0001156,0.0175,275.9888,168.9021,97.0353,0,U,56370,999,1091,0,-.199E-5,0
ARCTURUS,2023-060B,2026-04-26T12:12:02.870784,1.00269874,.0001617,2.6430,80.5759,357.3425,32.1231,0,U,56371,999,1094,0,-.72E-6,0
GS-1,2023-060C,2026-04-25T17:26:54.528000,1.00288618,.00044664,2.5914,80.4182,274.3843,208.1666,0,U,56372,999,701,0,-.222E-5,0
STARLINK-6156,2023-061A,2026-04-26T13:05:12.250752,15.27568095,.0001531,43.0028,288.0584,270.0198,90.0478,0,U,56374,999,16516,.77963E-4,.1883E-4,0
STARLINK-6158,2023-061B,2026-04-26T11:58:36.000192,15.27587712,.0000849,43.0034,287.7113,230.5904,129.4872,0,U,56375,999,16406,-.69273E-4,-.2168E-4,0
STARLINK-6188,2023-061C,2026-04-22T21:24:43.339392,15.26740617,.00011577,43.0029,307.9400,248.8955,111.1773,0,U,56376,999,16351,.26804447E-4,.459E-5,0
STARLINK-6189,2023-061D,2026-04-26T11:26:24.505728,15.26744005,.0001953,43.0038,288.4076,265.2943,94.7685,0,U,56377,999,16405,.56864E-4,.1266E-4,0
STARLINK-6191,2023-061E,2026-04-26T11:48:26.848224,15.26740792,.0001194,43.0013,287.6522,273.3687,86.7028,0,U,56378,999,16406,.25319E-4,.419E-5,0
STARLINK-6157,2023-061F,2026-04-26T12:02:11.423904,15.26769783,.000106,43.0017,287.7254,297.6271,62.4472,0,U,56379,999,16516,.25191E-3,.6509E-4,0
